{"type": "FeatureCollection", "features": [ {"type": "Feature", "properties": {"norad_id": 33153, "name": "INTELSAT 25 (IS-25)", "group": "intelsat", "lat": 2.117183820210079, "lon": -171.3336359400236, "alt_km": 35780.39557177671, "timestamp": "2025-12-07T09:35:09.459725+00:00", "meta": {"OBJECT_NAME": "INTELSAT 25 (IS-25)", "OBJECT_ID": "2008-034A", "EPOCH": "2025-12-06T22:04:38.347392", "MEAN_MOTION": 1.00270664, "ECCENTRICITY": 0.0005449, "INCLINATION": 2.2121, "RA_OF_ASC_NODE": 82.7106, "ARG_OF_PERICENTER": 181.5704, "MEAN_ANOMALY": 111.3387, "EPHEMERIS_TYPE": 0, "CLASSIFICATION_TYPE": "U", "NORAD_CAT_ID": 33153, "ELEMENT_SET_NO": 999, "REV_AT_EPOCH": 6376, "BSTAR": 0, "MEAN_MOTION_DOT": -2.19e-06, "MEAN_MOTION_DDOT": 0}, "tle": {"line1": "1 33153U 08034A   25340.91988828 -.00000219  00000+0  00000+0 0  9998", "line2": "2 33153   2.2121  82.7106 0005449 181.5704 111.3387  1.00270664 63769"}}, "geometry": {"type": "Point", "coordinates": [-171.3336359400236, 2.117183820210079]}}, {"type": "Feature", "properties": {"norad_id": 33376, "name": "GALAXY 19 (G-19)", "group": "intelsat", "lat": 0.025885694722454375, "lon": 123.18362658710794, "alt_km": 35798.2794715019, "timestamp": "2025-12-07T09:35:09.459736+00:00", "meta": {"OBJECT_NAME": "GALAXY 19 (G-19)", "OBJECT_ID": "2008-045A", "EPOCH": "2025-12-06T21:45:55.142208", "MEAN_MOTION": 1.00270671, "ECCENTRICITY": 0.00034498, "INCLINATION": 0.0242, "RA_OF_ASC_NODE": 66.0477, "ARG_OF_PERICENTER": 201.5792, "MEAN_ANOMALY": 37.7949, "EPHEMERIS_TYPE": 0, "CLASSIFICATION_TYPE": "U", "NORAD_CAT_ID": 33376, "ELEMENT_SET_NO": 999, "REV_AT_EPOCH": 6297, "BSTAR": 0, "MEAN_MOTION_DOT": -1.33e-06, "MEAN_MOTION_DDOT": 0}, "tle": {"line1": "1 33376U 08045A   25340.90688822 -.00000133  00000+0  00000+0 0  9992", "line2": "2 33376   0.0242  66.0477 0003449 201.5792  37.7949  1.00270671 62975"}}, "geometry": {"type": "Point", "coordinates": [123.18362658710794, 0.025885694722454375]}}, {"type": "Feature", "properties": {"norad_id": 35493, "name": "FM-5", "group": "intelsat", "lat": -0.0027782609043371024, "lon": 134.0694708964347, "alt_km": 35781.691094447764, "timestamp": "2025-12-07T09:35:09.459748+00:00", "meta": {"OBJECT_NAME": "FM-5", "OBJECT_ID": "2009-034A", "EPOCH": "2025-12-06T21:49:02.343360", "MEAN_MOTION": 1.00277728, "ECCENTRICITY": 7.015e-05, "INCLINATION": 0.019, "RA_OF_ASC_NODE": 289.05, "ARG_OF_PERICENTER": 225.4492, "MEAN_ANOMALY": 162.5579, "EPHEMERIS_TYPE": 0, "CLASSIFICATION_TYPE": "U", "NORAD_CAT_ID": 35493, "ELEMENT_SET_NO": 999, "REV_AT_EPOCH": 4471, "BSTAR": 0, "MEAN_MOTION_DOT": -1.95e-06, "MEAN_MOTION_DDOT": 0}, "tle": {"line1": "1 35493U 09034A   25340.90905490 -.00000195  00000+0  00000+0 0  9994", "line2": "2 35493   0.0190 289.0500 0000701 225.4492 162.5579  1.00277728 44711"}}, "geometry": {"type": "Point", "coordinates": [134.0694708964347, -0.0027782609043371024]}}, {"type": "Feature", "properties": {"norad_id": 36097, "name": "INTELSAT 14 (IS-14)", "group": "intelsat", "lat": -0.006972832206677911, "lon": 175.18341640250404, "alt_km": 35785.20948364515, "timestamp": "2025-12-07T09:35:09.459760+00:00", "meta": {"OBJECT_NAME": "INTELSAT 14 (IS-14)", "OBJECT_ID": "2009-064A", "EPOCH": "2025-12-06T22:00:46.218240", "MEAN_MOTION": 1.00271017, "ECCENTRICITY": 0.00027305, "INCLINATION": 0.0092, "RA_OF_ASC_NODE": 346.9491, "ARG_OF_PERICENTER": 272.5958, "MEAN_ANOMALY": 101.6074, "EPHEMERIS_TYPE": 0, "CLASSIFICATION_TYPE": "U", "NORAD_CAT_ID": 36097, "ELEMENT_SET_NO": 999, "REV_AT_EPOCH": 5867, "BSTAR": 0, "MEAN_MOTION_DOT": -2.68e-06, "MEAN_MOTION_DDOT": 0}, "tle": {"line1": "1 36097U 09064A   25340.91720160 -.00000268  00000+0  00000+0 0  9999", "line2": "2 36097   0.0092 346.9491 0002730 272.5958 101.6074  1.00271017 58678"}}, "geometry": {"type": "Point", "coordinates": [175.18341640250404, -0.006972832206677911]}}, {"type": "Feature", "properties": {"norad_id": 36106, "name": "INTELSAT 15 (IS-15)", "group": "intelsat", "lat": -0.02244349684876405, "lon": -54.61998144768522, "alt_km": 35779.03339446518, "timestamp": "2025-12-07T09:35:09.459772+00:00", "meta": {"OBJECT_NAME": "INTELSAT 15 (IS-15)", "OBJECT_ID": "2009-067A", "EPOCH": "2025-12-06T20:37:38.577792", "MEAN_MOTION": 1.00270349, "ECCENTRICITY": 0.00025085, "INCLINATION": 0.0163, "RA_OF_ASC_NODE": 339.434, "ARG_OF_PERICENTER": 280.7343, "MEAN_ANOMALY": 210.2915, "EPHEMERIS_TYPE": 0, "CLASSIFICATION_TYPE": "U", "NORAD_CAT_ID": 36106, "ELEMENT_SET_NO": 999, "REV_AT_EPOCH": 3930, "BSTAR": 0, "MEAN_MOTION_DOT": -1.79e-06, "MEAN_MOTION_DDOT": 0}, "tle": {"line1": "1 36106U 09067A   25340.85947428 -.00000179  00000+0  00000+0 0  9995", "line2": "2 36106   0.0163 339.4340 0002508 280.7343 210.2915  1.00270349 39307"}}, "geometry": {"type": "Point", "coordinates": [-54.61998144768522, -0.02244349684876405]}}, {"type": "Feature", "properties": {"norad_id": 36131, "name": "DIRECTV 12", "group": "intelsat", "lat": 0.01790106461015994, "lon": 117.48628826697895, "alt_km": 35787.302417159444, "timestamp": "2025-12-07T09:35:09.459784+00:00", "meta": {"OBJECT_NAME": "DIRECTV 12", "OBJECT_ID": "2009-075A", "EPOCH": "2025-12-06T14:53:20.048352", "MEAN_MOTION": 1.00272184, "ECCENTRICITY": 4.645e-05, "INCLINATION": 0.0503, "RA_OF_ASC_NODE": 138.3397, "ARG_OF_PERICENTER": 206.243, "MEAN_ANOMALY": 211.6829, "EPHEMERIS_TYPE": 0, "CLASSIFICATION_TYPE": "U", "NORAD_CAT_ID": 36131, "ELEMENT_SET_NO": 999, "REV_AT_EPOCH": 4462, "BSTAR": 0, "MEAN_MOTION_DOT": -9.7e-07, "MEAN_MOTION_DDOT": 0}, "tle": {"line1": "1 36131U 09075A   25340.62037093 -.00000097  00000+0  00000+0 0  9994", "line2": "2 36131   0.0503 138.3397 0000464 206.2430 211.6829  1.00272184 44629"}}, "geometry": {"type": "Point", "coordinates": [117.48628826697895, 0.01790106461015994]}}, {"type": "Feature", "properties": {"norad_id": 36397, "name": "INTELSAT 16 (IS-16)", "group": "intelsat", "lat": 0.0005815639991852831, "lon": 143.98363510342367, "alt_km": 35790.49756958036, "timestamp": "2025-12-07T09:35:09.459796+00:00", "meta": {"OBJECT_NAME": "INTELSAT 16 (IS-16)", "OBJECT_ID": "2010-006A", "EPOCH": "2025-12-06T21:51:47.078784", "MEAN_MOTION": 1.00271089, "ECCENTRICITY": 0.00023508, "INCLINATION": 0.0123, "RA_OF_ASC_NODE": 315.5734, "ARG_OF_PERICENTER": 303.2099, "MEAN_ANOMALY": 68.9098, "EPHEMERIS_TYPE": 0, "CLASSIFICATION_TYPE": "U", "NORAD_CAT_ID": 36397, "ELEMENT_SET_NO": 999, "REV_AT_EPOCH": 5772, "BSTAR": 0, "MEAN_MOTION_DOT": -2.39e-06, "MEAN_MOTION_DDOT": 0}, "tle": {"line1": "1 36397U 10006A   25340.91096156 -.00000239  00000+0  00000+0 0  9999", "line2": "2 36397   0.0123 315.5734 0002350 303.2099  68.9098  1.00271089 57729"}}, "geometry": {"type": "Point", "coordinates": [143.98363510342367, 0.0005815639991852831]}}, {"type": "Feature", "properties": {"norad_id": 37185, "name": "XM-5", "group": "intelsat", "lat": 0.0041508519789668664, "lon": 104.99335894271636, "alt_km": 35783.12517902773, "timestamp": "2025-12-07T09:35:09.459807+00:00", "meta": {"OBJECT_NAME": "XM-5", "OBJECT_ID": "2010-053A", "EPOCH": "2025-12-06T21:40:40.643616", "MEAN_MOTION": 1.00268224, "ECCENTRICITY": 0.0001708, "INCLINATION": 0.0621, "RA_OF_ASC_NODE": 273.0037, "ARG_OF_PERICENTER": 248.6895, "MEAN_ANOMALY": 124.2219, "EPHEMERIS_TYPE": 0, "CLASSIFICATION_TYPE": "U", "NORAD_CAT_ID": 37185, "ELEMENT_SET_NO": 999, "REV_AT_EPOCH": 5555, "BSTAR": 0, "MEAN_MOTION_DOT": -1.7e-07, "MEAN_MOTION_DDOT": 0}, "tle": {"line1": "1 37185U 10053A   25340.90324819 -.00000017  00000+0  00000+0 0  9990", "line2": "2 37185   0.0621 273.0037 0001708 248.6895 124.2219  1.00268224 55551"}}, "geometry": {"type": "Point", "coordinates": [104.99335894271636, 0.0041508519789668664]}}, {"type": "Feature", "properties": {"norad_id": 37238, "name": "INTELSAT 17 (IS-17)", "group": "intelsat", "lat": -0.016242034634047726, "lon": -73.77649886691565, "alt_km": 35777.27081805102, "timestamp": "2025-12-07T09:35:09.459819+00:00", "meta": {"OBJECT_NAME": "INTELSAT 17 (IS-17)", "OBJECT_ID": "2010-065B", "EPOCH": "2025-12-06T20:20:38.721696", "MEAN_MOTION": 1.00271728, "ECCENTRICITY": 0.00024778, "INCLINATION": 0.0083, "RA_OF_ASC_NODE": 306.513, "ARG_OF_PERICENTER": 306.6743, "MEAN_ANOMALY": 193.857, "EPHEMERIS_TYPE": 0, "CLASSIFICATION_TYPE": "U", "NORAD_CAT_ID": 37238, "ELEMENT_SET_NO": 999, "REV_AT_EPOCH": 5132, "BSTAR": 0, "MEAN_MOTION_DOT": 4e-08, "MEAN_MOTION_DDOT": 0}, "tle": {"line1": "1 37238U 10065B   25340.84767039  .00000004  00000+0  00000+0 0  9995", "line2": "2 37238   0.0083 306.5130 0002477 306.6743 193.8570  1.00271728 51325"}}, "geometry": {"type": "Point", "coordinates": [-73.77649886691565, -0.016242034634047726]}}, {"type": "Feature", "properties": {"norad_id": 37392, "name": "INTELSAT 28 (IS-28)", "group": "intelsat", "lat": 1.263197780864322, "lon": -171.54371822899793, "alt_km": 35781.42491970743, "timestamp": "2025-12-07T09:35:09.459830+00:00", "meta": {"OBJECT_NAME": "INTELSAT 28 (IS-28)", "OBJECT_ID": "2011-016A", "EPOCH": "2025-12-06T22:04:30.859104", "MEAN_MOTION": 1.00270517, "ECCENTRICITY": 0.00041675, "INCLINATION": 1.309, "RA_OF_ASC_NODE": 85.1265, "ARG_OF_PERICENTER": 177.3165, "MEAN_ANOMALY": 112.9305, "EPHEMERIS_TYPE": 0, "CLASSIFICATION_TYPE": "U", "NORAD_CAT_ID": 37392, "ELEMENT_SET_NO": 999, "REV_AT_EPOCH": 5135, "BSTAR": 0, "MEAN_MOTION_DOT": -2.2e-06, "MEAN_MOTION_DDOT": 0}, "tle": {"line1": "1 37392U 11016A   25340.91980161 -.00000220  00000+0  00000+0 0  9995", "line2": "2 37392   1.3090  85.1265 0004167 177.3165 112.9305  1.00270517 51352"}}, "geometry": {"type": "Point", "coordinates": [-171.54371822899793, 1.263197780864322]}}]}